ONEWEB-0411             
1 51623U 22012B   25210.17348729 -.00000299  00000+0 -89229-3 0  9999
2 51623  87.8801 100.6937 0001771  57.5611 302.5687 13.10370004168261
ONEWEB-0415             
1 51624U 22012C   25209.63566470 -.00000281  00000+0 -84048-3 0  9999
2 51624  87.8800 100.8041 0001750  66.9618 293.1694 13.10369681166919
ONEWEB-0416             
1 51625U 22012D   25209.72363526 -.00000637  00000+0 -18625-2 0  9999
2 51625  87.8805 100.8051 0001750  76.5660 283.5663 13.10372197168254
ONEWEB-0422             
1 51626U 22012E   25209.89118626  .00000033  00000+0  50772-4 0  9996
2 51626  87.9041  70.1938 0002498  77.6423 282.4988 13.17650373172514
ONEWEB-0423             
1 51627U 22012F   25209.88443713  .00000009  00000+0 -94331-5 0  9998
2 51627  87.9043  70.2033 0001840  84.3843 275.7498 13.17649936172418
ONEWEB-0425             
1 51628U 22012G   25209.73359652 -.00000536  00000+0 -15712-2 0  9990
2 51628  87.8807 100.7727 0001722  87.1887 272.9438 13.10375207168253
ONEWEB-0428             
1 51629U 22012H   25210.17182970 -.00000224  00000+0 -67942-3 0  9995
2 51629  87.8800 100.7071 0001962  73.3190 286.8152 13.10369644168265
ONEWEB-0431             
1 51630U 22012J   25210.14182409  .00000679  00000+0  19087-2 0  9999
2 51630  87.8803 100.6830 0002080  61.4425 298.6912 13.10375054168327
ONEWEB-0434             
1 51631U 22012K   25209.50784433 -.00000440  00000+0 -12957-2 0  9990
2 51631  87.8811 100.8524 0001724  97.7662 262.3661 13.10375413166931
ONEWEB-0435             
1 51632U 22012L   25209.66886531  .00000058  00000+0  12899-3 0  9999
2 51632  87.8808 100.8130 0002245  74.4169 285.7206 13.10376831168227
ONEWEB-0436             
1 51633U 22012M   25209.57224783 -.00000247  00000+0 -66888-3 0  9994
2 51633  87.9031  70.2513 0001955  77.9169 282.2182 13.17648699171069
ONEWEB-0438             
1 51634U 22012N   25209.49954188 -.00000661  00000+0 -19299-2 0  9998
2 51634  87.8807 100.8476 0001748  82.1977 277.9349 13.10373608166959
ONEWEB-0439             
1 51635U 22012P   25210.19007767 -.00000605  00000+0 -17695-2 0  9996
2 51635  87.8806 100.6978 0001891  75.8544 284.2793 13.10373795168304
ONEWEB-0442             
1 51636U 22012Q   25210.17215557  .00000045  00000+0  81602-4 0  9990
2 51636  87.9037  70.1845 0001308  99.9712 260.1567 13.17650017172425
ONEWEB-0443             
1 51637U 22012R   25210.11562134  .00000029  00000+0  42008-4 0  9990
2 51637  87.9030  70.2056 0001914  92.8311 267.3039 13.17650483172468
ONEWEB-0444             
1 51638U 22012S   25209.49290536 -.00000558  00000+0 -16349-2 0  9990
2 51638  87.8804 100.8380 0001989  78.7660 281.3691 13.10371888166947
ONEWEB-0445             
1 51639U 22012T   25209.74354996 -.00000228  00000+0 -68835-3 0  9992
2 51639  87.8802 100.7410 0001639  75.5164 284.6145 13.10375557168269
